AMC-1 (GE-1)            
1 24315U 96054A   22268.55099602  .00000069  00000+0  00000+0 0  9998
2 24315   5.8508  72.2780 0003081 117.6988 241.8503  1.00273117 32674
AMC-3 (GE-3)            
1 24936U 97050A   22268.50835920 -.00000256  00000+0  00000+0 0  9999
2 24936   4.7837  78.5191 0002828 113.3815 283.4307  1.00272325 38794
ASTRA 1G                
1 25071U 97076A   22268.16781435  .00000120  00000+0  00000+0 0  9990
2 25071   6.4676  67.5003 0003454 117.6918 258.6470  1.00275431 90864
ASTRA 2A                
1 25462U 98050A   22268.46240462  .00000072  00000+0  00000+0 0  9996
2 25462   3.6475  84.4723 0002984 114.8327  28.6304  1.00272568 32697
AMC-4 (GE-4)            
1 25954U 99060A   22268.41914292  .00000089  00000+0  00000+0 0  9996
2 25954   1.7652  90.6600 0002704  92.2842 197.2787  1.00272012 29905
NSS-11 (AAP-1)          
1 26554U 00059A   22268.56340882  .00000026  00000+0  00000+0 0  9998
2 26554   0.0215 112.9662 0002174  77.0816 193.1538  1.00271680 80533
AMC-6 (GE-6)            
1 26580U 00067A   22268.54083135  .00000105  00000+0  00000+0 0  9997
2 26580   0.0162 166.2282 0002719  16.1103 237.6938  1.00271978 80269
ASTRA 2D                
1 26638U 00081A   22268.06993966  .00000134  00000+0  00000+0 0  9998
2 26638   7.5008  59.6127 0001980 143.8298 209.2754  1.00272754 39256
AMC-8 (GE-8)            
1 26639U 00081B   22268.54580840  .00000090  00000+0  00000+0 0  9996
2 26639   2.6936  87.4826 0002224  49.0163 289.3502  1.00272681 79688
ASTRA 2C                
1 26853U 01025A   22268.45659345 -.00000254  00000+0  00000+0 0  9993
2 26853   4.8077  78.3247 0002895 117.0454 260.7647  1.00269030 31400
ASTRA 3A                
1 27400U 02015B   22268.44756019 -.00000198  00000+0  00000+0 0  9994
2 27400   7.5994  58.4879 0001663 143.2180 236.9292  1.00272156 75082
NSS-7                   
1 27414U 02019A   22268.30343837 -.00000153  00000+0  00000+0 0  9999
2 27414   6.1273  70.4708 0002339 125.5755 257.3140  1.00271627 74911
NSS-6                   
1 27603U 02057A   22268.58154477  .00000110  00000+0  00000+0 0  9993
2 27603   1.8568  90.4519 0003420 101.0105 212.7600  1.00273328 72398
AMC-11 (GE-11)          
1 28252U 04017A   22268.55099578  .00000070  00000+0  00000+0 0  9994
2 28252   0.0128 156.7744 0002655  31.4926 243.4284  1.00270423 67233
AMC-15                  
1 28446U 04041A   22268.58317950 -.00000088  00000+0  00000+0 0  9996
2 28446   0.0048 121.1303 0002677  65.2925 282.8557  1.00271598 65685
NSS-10 (AMC-12)         
1 28526U 05003A   22268.44348213 -.00000247  00000+0  00000+0 0  9992
2 28526   3.0277  86.2474 0002853  89.2314 310.9916  1.00271398 39518
ASTRA 1KR               
1 29055U 06012A   22268.41368875  .00000120  00000+0  00000+0 0  9993
2 29055   0.0233 249.9314 0004535 313.8619 328.5560  1.00270426 32085
AMC-18                  
1 29644U 06054B   22268.50617920 -.00000214  00000+0  00000+0 0  9996
2 29644   0.0170 164.3906 0002344  14.7907 284.3511  1.00269481 57901
ASTRA 1L                
1 31306U 07016A   22268.41368875  .00000120  00000+0  00000+0 0  9990
2 31306   0.0535 341.8503 0002927 251.8424 298.6590  1.00270497 31360
ASTRA 4A (SIRIUS 4)     
1 32299U 07057A   22268.30840878  .00000033  00000+0  00000+0 0  9996
2 32299   0.0172 149.2129 0002803  37.8659 292.8560  1.00270571 38024
AMC-21                  
1 33275U 08038B   22268.55947066  .00000037  00000+0  00000+0 0  9999
2 33275   0.0144 156.1159 0002495  37.7929 246.9557  1.00271062 51829
ASTRA 1M                
1 33436U 08057A   22268.41368875  .00000120  00000+0  00000+0 0  9992
2 33436   0.0144 135.4381 0005168  29.0923   7.8161  1.00269995 32087
CIEL-2                  
1 33453U 08063A   22268.55438365  .00000059  00000+0  00000+0 0  9996
2 33453   0.0205 140.7314 0002979  51.2818 243.0801  1.00272488 50486
NSS-9                   
1 33749U 09008A   22268.57175116  .00000073  00000+0  00000+0 0  9994
2 33749   0.0083 146.3824 0002124  33.4122 213.4990  1.00273603 49925
SES-7 (PROTOSTAR 2)     
1 34941U 09027A   22268.47251986 -.00000345  00000+0  00000+0 0  9992
2 34941   0.0558  87.8255 0001682 142.8421  51.9838  1.00274430 48978
NSS-12                  
1 36032U 09058A   22268.46231742  .00000072  00000+0  00000+0 0  9992
2 36032   0.0159 108.3579 0002697  83.1116  36.2380  1.00271948 47272
SES-1                   
1 36516U 10016A   22268.51801425 -.00000114  00000+0  00000+0 0  9990
2 36516   0.0512 290.2012 0002408 261.4847 258.1262  1.00271611 45399
ASTRA 3B                
1 36581U 10021A   22268.41368875  .00000137  00000+0  00000+0 0  9998
2 36581   0.0563  40.0290 0003925 148.3246 348.2646  1.00272261 45239
SES-3                   
1 37748U 11035A   22268.51466807 -.00000100  00000+0  00000+0 0  9996
2 37748   0.0092 155.9046 0002734  25.2283 265.4625  1.00269361 40945
ASTRA 1N                
1 37775U 11041A   22268.41368875  .00000120  00000+0  00000+0 0  9999
2 37775   0.0224  41.0533 0002056  84.1335  47.1409  1.00267304 30889
SES-2                   
1 37809U 11049A   22268.50539439 -.00000195  00000+0  00000+0 0  9994
2 37809   0.0190 152.9406 0002775  28.5683 277.7361  1.00269364 40322
QUETZSAT 1              
1 37826U 11054A   22268.50731280 -.00000240  00000+0  00000+0 0  9998
2 37826   0.0149 161.2081 0002726  20.0782 288.6508  1.00269970 36254
SES-4                   
1 38087U 12007A   22268.37485545 -.00000168  00000+0  00000+0 0  9991
2 38087   0.0195 132.3611 0002307  69.4328 275.3393  1.00267973 38596
SES-5                   
1 38652U 12036A   22268.41924582  .00000034  00000+0  00000+0 0  9996
2 38652   0.0661 293.3814 0002105 250.2756 336.4828  1.00271558 30842
ASTRA 2F                
1 38778U 12051A   22268.21646675  .00000150  00000+0  00000+0 0  9993
2 38778   0.0790 247.9308 0004540 324.0806 258.1825  1.00276670 27470
SES-6                   
1 39172U 13026A   22268.44287174 -.00000260  00000+0  00000+0 0  9998
2 39172   0.0434 314.8513 0002333 240.0652 288.2796  1.00270712 34087
O3B FM5                 
1 39188U 13031A   22268.22258393 -.00000018  00000+0  00000+0 0  9999
2 39188   0.0624  17.8045 0002613 170.0945 172.1011  5.00115283168953
O3B FM4                 
1 39189U 13031B   22268.27860211 -.00000018  00000+0  00000+0 0  9993
2 39189   0.0524 351.6042 0002567 195.8181 172.5782  5.00115832168975
O3B FM2                 
1 39190U 13031C   22268.17010738 -.00000018  00000+0  00000+0 0  9995
2 39190   0.0530 346.1949 0002588 199.9954 173.8107  5.00116873169023
O3B PFM                 
1 39191U 13031D   22268.39631659 -.00000018  00000+0  00000+0 0  9991
2 39191   0.0566  11.0928 0002642 173.3943 175.5149  5.00115714168592
ASTRA 2E                
1 39285U 13056A   22268.35813573  .00000150  00000+0  00000+0 0  9991
2 39285   0.0690 336.6585 0002846 215.1278 329.7743  1.00272556 32790
SES-8                   
1 39460U 13071A   22268.51368816 -.00000269  00000+0  00000+0 0  9998
2 39460   0.0311 242.8102 0002012 261.6777 139.7725  1.00272489 30784
ASTRA 5B                
1 39617U 14011B   22268.52965883  .00000155  00000+0  00000+0 0  9998
2 39617   0.0096 320.7810 0003512 225.7753  39.9400  1.00272057 31021
O3B FM3                 
1 40079U 14038A   22268.25120084 -.00000018  00000+0  00000+0 0  9996
2 40079   0.0544 359.6241 0004889 171.0103 189.3790  5.00115356144964
O3B FM7                 
1 40080U 14038B   22268.19727182 -.00000018  00000+0  00000+0 0  9993
2 40080   0.0570 355.8169 0001737 234.5465 129.6255  5.00115476149799
O3B FM6                 
1 40081U 14038C   22266.42463401 -.00000022  00000+0  00000+0 0  9994
2 40081   0.0536 359.0368 0002701 185.2164 175.7477  5.00115399149656
O3B FM8                 
1 40082U 14038D   22268.47746273 -.00000018  00000+0  00000+0 0  9998
2 40082   0.0518 356.0428 0002638 186.6171 177.3430  5.00115670149876
O3B FM10                
1 40348U 14083A   22267.90385508 -.00000019  00000+0  00000+0 0  9991
2 40348   0.0519   8.6580 0002626 175.0639 176.2802  5.00115177141795
O3B FM11                
1 40349U 14083B   22268.31708796 -.00000018  00000+0  00000+0 0  9995
2 40349   0.0566   7.7789 0002519 192.8516 159.3636  5.00115411141834
O3B FM12                
1 40350U 14083C   22268.34429798 -.00000018  00000+0  00000+0 0  9992
2 40350   0.0559   7.1611 0002760 181.2491 171.5894  5.00115287141842
O3B FM9                 
1 40351U 14083D   22268.17128725 -.00000018  00000+0  00000+0 0  9990
2 40351   0.0578   8.0144 0002596 177.6053 174.3817  5.00116166141983
ASTRA 2G                
1 40364U 14089A   22268.35813573  .00000150  00000+0  00000+0 0  9998
2 40364   0.0527 352.6383 0002008 112.1264  56.5238  1.00273634 28320
SES-9                   
1 41380U 16013A   22268.47251986 -.00000345  00000+0  00000+0 0  9990
2 41380   0.0390 279.3849 0001488 214.6962 148.6165  1.00271989 23792
SES-10                  
1 42432U 17017A   22268.50205750 -.00000272  00000+0  00000+0 0  9995
2 42432   0.0178 172.8036 0002536  12.8951 292.4418  1.00268580 20105
SES-15                  
1 42709U 17026A   22268.55268852  .00000061  00000+0  00000+0 0  9994
2 42709   0.0182 356.6061 0000279 173.8524 263.7164  1.00268952 20497
SES-11 (ECHOSTAR 105)   
1 42967U 17063A   22266.60680247 -.00000093  00000+0  00000+0 0  9997
2 42967   0.0524 280.0039 0002923 272.8257 283.1163  1.00276197 18064
SES-14                  
1 43175U 18012B   22267.08105003 -.00000280  00000+0  00000+0 0  9997
2 43175   0.0323 284.4428 0001101 266.2023 153.9441  1.00271875 17394
O3B FM15                
1 43231U 18024A   22268.23722548 -.00000018  00000+0  00000+0 0  9999
2 43231   0.0486   9.8454 0002925 177.0806 173.0742  5.00116042 82946
O3B FM16                
1 43232U 18024B   22266.49160269 -.00000022  00000+0  00000+0 0  9997
2 43232   0.0450  12.3341 0002900 173.3570 174.3089  5.00115925 82770
O3B FM14                
1 43233U 18024C   22268.33026291 -.00000018  00000+0  00000+0 0  9994
2 43233   0.0436  12.8876 0002754 177.1643 169.9469  5.00115300 82873
O3B FM13                
1 43234U 18024D   22268.18388637 -.00000018  00000+0  00000+0 0  9993
2 43234   0.0559  22.7390 0003688 169.9942 167.2617  5.00115090 82983
SES-12                  
1 43488U 18049A   22266.69007873 -.00000273  00000+0  00000+0 0  9998
2 43488   0.0326  72.1563 0001891 172.2332 101.5643  1.00272184 15756
O3B FM20                
1 44112U 19020A   22268.15708009 -.00000018  00000+0  00000+0 0  9992
2 44112   0.0516   7.9973 0003076 185.4617 166.5370  5.00115474 63485
O3B FM19                
1 44113U 19020B   22268.18388621 -.00000018  00000+0  00000+0 0  9990
2 44113   0.0707  21.0384 0001600 185.8998 153.0577  5.00115148 63352
O3B FM17                
1 44114U 19020C   22268.26438742 -.00000018  00000+0  00000+0 0  9990
2 44114   0.0365 351.5258 0003052 195.8660 172.6079  5.00115597 63446
O3B FM18                
1 44115U 19020D   22268.41079391 -.00000018  00000+0  00000+0 0  9999
2 44115   0.0519   8.2310 0002874 176.2545 175.5162  5.00115781 63562
SES-17                  
1 49332U 21095A   22268.50205806 -.00000271  00000+0  00000+0 0  9993
2 49332   0.0184 154.1671 0001102  32.5955 291.2028  1.00271954  4203
SES-22                  
1 52933U 22071A   22268.06535397  .00000088  00000+0  00000+0 0  9996
2 52933   0.0203 245.1668 0002569 323.8979  43.3456  1.00272484   906
